OBJECT_NAME,OBJECT_ID,EPOCH,MEAN_MOTION,ECCENTRICITY,INCLINATION,RA_OF_ASC_NODE,ARG_OF_PERICENTER,MEAN_ANOMALY,EPHEMERIS_TYPE,CLASSIFICATION_TYPE,NORAD_CAT_ID,ELEMENT_SET_NO,REV_AT_EPOCH,BSTAR,MEAN_MOTION_DOT,MEAN_MOTION_DDOT
STARLINK-31179,2024-005Y,2026-06-25T18:56:16.651104,15.27580268,.000114,43.0038,329.4778,266.8870,93.1851,0,U,58750,999,13697,.27337E-4,.49E-5,0
STARLINK-31127,2024-011A,2026-06-25T13:11:15.745056,15.30199550,.0001023,53.1598,232.7140,81.4084,278.7033,0,U,58765,999,13678,.13962E-3,.3778E-4,0
STARLINK-31114,2024-011B,2026-06-25T13:24:11.008800,15.30204607,.0001249,53.1588,230.6616,79.7030,280.4111,0,U,58766,999,13681,.81833E-5,-.117E-5,0
STARLINK-31140,2024-011C,2026-06-25T13:41:16.886112,15.34399663,.0000872,53.1584,232.1330,85.4760,274.6342,0,U,58767,999,13679,.54331E-4,.146E-4,0
STARLINK-31146,2024-011E,2026-06-25T13:50:22.247232,15.34401499,.000115,53.1586,232.1738,94.3752,265.7382,0,U,58769,999,13679,.24001E-4,.435E-5,0
STARLINK-31143,2024-011F,2026-06-25T20:00:01.999008,15.34400527,.000125,53.1585,231.0425,80.7546,223.1336,0,U,58770,999,588,-.39924E-3,-.13841E-3,0
STARLINK-31135,2024-011G,2026-06-25T13:08:59.581248,15.30181086,.0001148,53.1588,230.5926,94.6521,265.4610,0,U,58771,999,13681,.1484E-3,.4036E-4,0
STARLINK-31136,2024-011H,2026-06-25T13:32:12.873696,15.34380721,.0001405,53.1587,232.0920,119.0127,241.1017,0,U,58772,999,13678,-.47896E-4,-.1993E-4,0
STARLINK-31073,2024-011J,2026-06-25T10:07:42.921120,15.30188070,.000109,53.1587,233.3386,95.3505,264.7620,0,U,58773,999,13676,.81416E-4,.2052E-4,0
STARLINK-31122,2024-011K,2026-06-25T13:24:55.789920,15.30201802,.0001112,53.1589,232.7629,85.4959,274.6169,0,U,58774,999,13678,.33253E-4,.626E-5,0
STARLINK-31123,2024-011L,2026-06-25T14:23:34.537920,15.34397862,.000133,53.1591,231.6031,51.4402,308.6719,0,U,58775,999,1005,.17155E-3,.5423E-4,0
STARLINK-31117,2024-011M,2026-06-25T13:35:35.359008,15.30204745,.0001144,53.1580,232.8092,79.2103,280.9026,0,U,58776,999,13678,.27321E-3,.7742E-4,0
STARLINK-31132,2024-011N,2026-06-25T15:03:08.119584,15.31704240,.0001448,53.1598,141.5526,93.8432,266.2735,0,U,58777,999,13809,.33087E-4,.662E-5,0
STARLINK-31120,2024-011P,2026-06-25T10:39:45.192384,15.34396707,.0001088,53.1588,232.7586,85.0019,275.1108,0,U,58778,999,13677,.65855E-4,.1849E-4,0
STARLINK-31142,2024-011Q,2026-06-25T10:24:26.769024,15.30195586,.0000843,53.1593,233.4046,85.9393,274.1704,0,U,58779,999,13676,.53759E-4,.1233E-4,0
STARLINK-31099,2024-011S,2026-06-25T18:10:07.627008,15.30201745,.0001131,53.1593,231.8638,77.8989,282.2138,0,U,58781,999,13681,.28835E-4,.495E-5,0
STARLINK-31047,2024-011U,2026-06-25T09:52:35.637312,15.34404486,.0001062,53.1587,216.4799,94.0257,266.0867,0,U,58783,999,13699,.66635E-4,.1876E-4,0
STARLINK-31039,2024-011V,2026-06-25T10:10:44.764608,15.30200507,.0001165,53.1589,233.3401,86.7474,273.3660,0,U,58784,999,13676,.53568E-4,.1228E-4,0
STARLINK-31034,2024-011W,2026-06-25T13:47:03.499584,15.34393064,.0001645,53.1583,128.4101,90.8258,269.2933,0,U,58785,999,13827,.63958E-4,.1784E-4,0
STARLINK-31024,2024-011X,2026-06-25T13:25:41.617344,15.30202974,.0000967,53.1589,230.6565,77.0159,283.0950,0,U,58786,999,13681,.21172E-4,.268E-5,0
STARLINK-31189,2024-012A,2026-06-25T15:57:37.058400,15.27585958,.0001334,43.0038,275.1001,273.3286,86.7413,0,U,58787,999,13775,.70068E-4,.1667E-4,0
STARLINK-31185,2024-012B,2026-06-25T17:19:00.981696,15.27587126,.0003114,43.0042,275.5265,253.5880,106.4630,0,U,58788,999,13775,.35839E-4,.724E-5,0
STARLINK-31166,2024-012C,2026-06-25T16:21:40.151808,15.27592133,.0001482,43.0020,275.2225,280.1870,79.8814,0,U,58789,999,13775,.42841E-4,.917E-5,0
STARLINK-31187,2024-012D,2026-06-25T15:43:01.892064,15.27580139,.0001213,43.0021,275.8831,278.9444,81.1270,0,U,58790,999,13774,.22566E-4,.359E-5,0
STARLINK-31162,2024-012E,2026-06-25T16:19:49.573632,15.27585781,.000124,43.0020,275.2238,269.3559,90.7151,0,U,58791,999,13775,.65774E-4,.1549E-4,0
STARLINK-31184,2024-012G,2026-06-25T17:46:35.137344,15.27582023,.0000755,43.0014,274.8104,287.8982,72.1787,0,U,58793,999,13776,.54283E-4,.1232E-4,0
STARLINK-31192,2024-012H,2026-06-25T15:39:19.473408,15.27580491,.0001078,43.0016,275.8565,263.4014,96.6715,0,U,58794,999,13774,.5849E-4,.1348E-4,0
STARLINK-31161,2024-012J,2026-06-25T17:50:15.212832,15.27607179,.00016,43.0017,274.8279,275.1268,84.9401,0,U,58795,999,13776,.1318E-3,.3369E-4,0
STARLINK-31195,2024-012K,2026-06-25T15:50:26.019168,15.27581221,.0001032,43.0022,275.9186,267.0248,93.0485,0,U,58796,999,13774,.26326E-4,.463E-5,0
STARLINK-31193,2024-012L,2026-06-25T16:29:05.312256,15.27557350,.0000649,43.0006,275.2624,258.3096,101.7683,0,U,58797,999,13775,.2175E-3,.5724E-4,0
