STARLINK-31179          
1 58750U 24005Y   26176.78908161  .00000490  00000+0  27337-4 0  9996
2 58750  43.0038 329.4778 0001140 266.8870  93.1851 15.27580268136975
STARLINK-31127          
1 58765U 24011A   26176.54948779  .00003778  00000+0  13962-3 0  9992
2 58765  53.1598 232.7140 0001023  81.4084 278.7033 15.30199550136787
STARLINK-31114          
1 58766U 24011B   26176.55846075 -.00000117  00000+0  81833-5 0  9999
2 58766  53.1588 230.6616 0001249  79.7030 280.4111 15.30204607136814
STARLINK-31140          
1 58767U 24011C   26176.57033433  .00001460  00000+0  54331-4 0  9991
2 58767  53.1584 232.1330 0000872  85.4760 274.6342 15.34399663136795
STARLINK-31146          
1 58769U 24011E   26176.57664638  .00000435  00000+0  24001-4 0  9992
2 58769  53.1586 232.1738 0001150  94.3752 265.7382 15.34401499136797
STARLINK-31143          
1 58770U 24011F   26176.83335647 -.00013841  00000+0 -39924-3 0  9994
2 58770  53.1585 231.0425 0001250  80.7546 223.1336 15.34400527  5883
STARLINK-31135          
1 58771U 24011G   26176.54791182  .00004036  00000+0  14840-3 0  9997
2 58771  53.1588 230.5926 0001148  94.6521 265.4610 15.30181086136814
STARLINK-31136          
1 58772U 24011H   26176.56403789 -.00001993  00000+0 -47896-4 0  9992
2 58772  53.1587 232.0920 0001405 119.0127 241.1017 15.34380721136784
STARLINK-31073          
1 58773U 24011J   26176.42202455  .00002052  00000+0  81416-4 0  9996
2 58773  53.1587 233.3386 0001090  95.3505 264.7620 15.30188070136769
STARLINK-31122          
1 58774U 24011K   26176.55897905  .00000626  00000+0  33253-4 0  9992
2 58774  53.1589 232.7629 0001112  85.4959 274.6169 15.30201802136782
STARLINK-31123          
1 58775U 24011L   26176.59970530  .00005423  00000+0  17155-3 0  9995
2 58775  53.1591 231.6031 0001330  51.4402 308.6719 15.34397862 10055
STARLINK-31117          
1 58776U 24011M   26176.56638147  .00007742  00000+0  27321-3 0  9990
2 58776  53.1580 232.8092 0001144  79.2103 280.9026 15.30204745136788
STARLINK-31132          
1 58777U 24011N   26176.62717731  .00000662  00000+0  33087-4 0  9996
2 58777  53.1598 141.5526 0001448  93.8432 266.2735 15.31704240138096
STARLINK-31120          
1 58778U 24011P   26176.44427306  .00001849  00000+0  65855-4 0  9999
2 58778  53.1588 232.7586 0001088  85.0019 275.1108 15.34396707136773
STARLINK-31142          
1 58779U 24011Q   26176.43364316  .00001233  00000+0  53759-4 0  9997
2 58779  53.1593 233.4046 0000843  85.9393 274.1704 15.30195586136769
STARLINK-31099          
1 58781U 24011S   26176.75703272  .00000495  00000+0  28835-4 0  9999
2 58781  53.1593 231.8638 0001131  77.8989 282.2138 15.30201745136815
STARLINK-31047          
1 58783U 24011U   26176.41152358  .00001876  00000+0  66635-4 0  9991
2 58783  53.1587 216.4799 0001062  94.0257 266.0867 15.34404486136998
STARLINK-31039          
1 58784U 24011V   26176.42412922  .00001228  00000+0  53568-4 0  9991
2 58784  53.1589 233.3401 0001165  86.7474 273.3660 15.30200507136763
STARLINK-31034          
1 58785U 24011W   26176.57434606  .00001784  00000+0  63958-4 0  9992
2 58785  53.1583 128.4101 0001645  90.8258 269.2933 15.34393064138278
STARLINK-31024          
1 58786U 24011X   26176.55950946  .00000268  00000+0  21172-4 0  9999
2 58786  53.1589 230.6565 0000967  77.0159 283.0950 15.30202974136814
STARLINK-31189          
1 58787U 24012A   26176.66501225  .00001667  00000+0  70068-4 0  9997
2 58787  43.0038 275.1001 0001334 273.3286  86.7413 15.27585958137750
STARLINK-31185          
1 58788U 24012B   26176.72153914  .00000724  00000+0  35839-4 0  9993
2 58788  43.0042 275.5265 0003114 253.5880 106.4630 15.27587126137750
STARLINK-31166          
1 58789U 24012C   26176.68171472  .00000917  00000+0  42841-4 0  9993
2 58789  43.0020 275.2225 0001482 280.1870  79.8814 15.27592133137752
STARLINK-31187          
1 58790U 24012D   26176.65488301  .00000359  00000+0  22566-4 0  9996
2 58790  43.0021 275.8831 0001213 278.9444  81.1270 15.27580139137742
STARLINK-31162          
1 58791U 24012E   26176.68043488  .00001549  00000+0  65774-4 0  9993
2 58791  43.0020 275.2238 0001240 269.3559  90.7151 15.27585781137751
STARLINK-31184          
1 58793U 24012G   26176.74068446  .00001232  00000+0  54283-4 0  9995
2 58793  43.0014 274.8104 0000755 287.8982  72.1787 15.27582023137764
STARLINK-31192          
1 58794U 24012H   26176.65230872  .00001348  00000+0  58490-4 0  9992
2 58794  43.0016 275.8565 0001078 263.4014  96.6715 15.27580491137741
STARLINK-31161          
1 58795U 24012J   26176.74323163  .00003369  00000+0  13180-3 0  9990
2 58795  43.0017 274.8279 0001600 275.1268  84.9401 15.27607179137763
STARLINK-31195          
1 58796U 24012K   26176.66002337  .00000463  00000+0  26326-4 0  9998
2 58796  43.0022 275.9186 0001032 267.0248  93.0485 15.27581221137746
STARLINK-31193          
1 58797U 24012L   26176.68686704  .00005724  00000+0  21750-3 0  9997
2 58797  43.0006 275.2624 0000649 258.3096 101.7683 15.27557350137750
